NORAD_CAT_ID,OBJECT_NAME,OBJECT_TYPE,EPOCH,MEAN_MOTION,ECCENTRICITY,INCLINATION,RA_OF_ASC_NODE,ARG_OF_PERICENTER,MEAN_ANOMALY,BSTAR,MEAN_MOTION_DOT,MEAN_MOTION_DDOT,TLE_LINE0,TLE_LINE1,TLE_LINE2,SEMIMAJOR_AXIS,PERIOD,APOGEE,PERIGEE,DECAYED
52499.0,STARLINK-3894,PAYLOAD,2023-03-01 06:14:17,15.0881396,0.0001379,53.2145,327.1056,139.2628,220.8467,0.00098957,0.00015485,0.0,0 STARLINK-3894,1 52499U 22049BA  23060.25992745  .00015485  00000-0  98957-3 0  9994,2 52499  53.2145 327.1056 0001379 139.2628 220.8467 15.08813960 45825,6917.96,95.439,540.779,538.871,0.0
52499.0,STARLINK-3894,PAYLOAD,2023-03-01 22:08:09,15.08827808,0.0001644,53.2149,324.1314,150.2442,209.8644,0.00075189,0.00011695,0.0,0 STARLINK-3894,1 52499U 22049BA  23060.92233433  .00011695  00000-0  75189-3 0  9991,2 52499  53.2149 324.1314 0001644 150.2442 209.8644 15.08827808 45768,6917.918,95.438,540.92,538.645,0.0
52499.0,STARLINK-3894,PAYLOAD,2023-03-02 02:54:19,15.08846679,0.000135,53.2152,323.239,131.37,228.7409,0.0012447,0.00019581,0.0,0 STARLINK-3894,1 52499U 22049BA  23061.12105359  .00019581  00000-0  12447-2 0  9998,2 52499  53.2152 323.2390 0001350 131.3700 228.7409 15.08846679 45796,6917.86,95.437,540.659,538.791,0.0
52499.0,STARLINK-3894,PAYLOAD,2023-03-03 02:45:06,15.0885641,0.0001195,53.2148,318.777,106.7562,253.3562,0.0011058,0.00017362,0.0,0 STARLINK-3894,1 52499U 22049BA  23062.11465723  .00017362  00000-0  11058-2 0  9994,2 52499  53.2148 318.7770 0001195 106.7562 253.3562 15.08856410 46105,6917.83,95.437,540.522,538.869,0.0
52499.0,STARLINK-3894,PAYLOAD,2023-03-03 21:49:42,15.08881624,0.0001219,53.216,315.2106,114.4216,245.6904,0.0020247,0.00032119,0.0,0 STARLINK-3894,1 52499U 22049BA  23062.90952493  .00032119  00000-0  20247-2 0  9993,2 52499  53.2160 315.2106 0001219 114.4216 245.6904 15.08881624 46067,6917.753,95.435,540.461,538.775,0.0
52499.0,STARLINK-3894,PAYLOAD,2023-03-04 02:35:51,15.08926634,8.44e-05,53.2159,314.318,95.3746,264.7343,0.0035959,0.00057545,0.0,0 STARLINK-3894,1 52499U 22049BA  23063.10823468  .00057545  00000-0  35959-2 0  9991,2 52499  53.2159 314.3180 0000844  95.3746 264.7343 15.08926634 46256,6917.616,95.432,540.064,538.897,0.0
52499.0,STARLINK-3894,PAYLOAD,2023-03-04 23:15:53,15.08818534,9.53e-05,53.2158,310.4525,41.3061,318.8003,0.0030056,0.00047843,0.0,0 STARLINK-3894,1 52499U 22049BA  23063.96937241  .00047843  00000-0  30056-2 0  9993,2 52499  53.2158 310.4525 0000953  41.3061 318.8003 15.08818534 46384,6917.946,95.439,540.47,539.152,0.0
52499.0,STARLINK-3894,PAYLOAD,2023-03-05 23:06:41,15.08859549,9.88e-05,53.2153,305.9926,38.0302,322.076,0.002,0.00031703,0.0,0 STARLINK-3894,1 52499U 22049BA  23064.96297921  .00031703  00000-0  20000-2 0  9994,2 52499  53.2153 305.9926 0000988  38.0302 322.0760 15.08859549 46537,6917.821,95.436,540.369,539.002,0.0
52499.0,STARLINK-3894,PAYLOAD,2023-03-06 02:17:27,15.08876992,0.0001142,53.2156,305.3967,42.76,317.3481,0.0024346,0.00038711,0.0,0 STARLINK-3894,1 52499U 22049BA  23065.09545615  .00038711  00000-0  24346-2 0  9998,2 52499  53.2156 305.3967 0001142  42.7600 317.3481 15.08876992 46555,6917.767,95.435,540.422,538.842,0.0
52499.0,STARLINK-3894,PAYLOAD,2023-03-07 05:19:01,15.08852637,0.0001639,53.2142,300.3434,54.1676,305.9469,0.00091844,0.00014364,0.0,0 STARLINK-3894,1 52499U 22049BA  23066.22154480  .00014364  00000-0  91844-3 0  9996,2 52499  53.2142 300.3434 0001639  54.1676 305.9469 15.08852637 46723,6917.842,95.437,540.841,538.573,0.0
52499.0,STARLINK-3894,PAYLOAD,2023-03-07 14:51:19,15.08833199,0.0001045,53.214,298.5568,78.7192,281.3917,0.00071721,0.00011143,0.0,0 STARLINK-3894,1 52499U 22049BA  23066.61898122  .00011143  00000-0  71721-3 0  9991,2 52499  53.2140 298.5568 0001045  78.7192 281.3917 15.08833199 46786,6917.901,95.438,540.489,539.043,0.0
52499.0,STARLINK-3894,PAYLOAD,2023-03-08 00:23:38,15.08866662,0.0001357,53.2136,296.7767,68.2216,291.892,0.00123,0.00019356,0.0,0 STARLINK-3894,1 52499U 22049BA  23067.01641848  .00019356  00000-0  12300-2 0  9998,2 52499  53.2136 296.7767 0001357  68.2216 291.8920 15.08866662 46847,6917.799,95.436,540.603,538.725,0.0
52499.0,STARLINK-3894,PAYLOAD,2023-03-08 14:42:07,15.08839501,0.0001713,53.2148,294.0976,87.9991,272.1198,0.0017813,0.00028175,0.0,0 STARLINK-3894,1 52499U 22049BA  23067.61258598  .00028175  00000-0  17813-2 0  9993,2 52499  53.2148 294.0976 0001713  87.9991 272.1198 15.08839501 46938,6917.882,95.438,540.932,538.562,0.0
52499.0,STARLINK-3894,PAYLOAD,2023-03-08 21:03:40,15.08843634,0.0001871,53.2146,292.9082,78.2782,281.842,0.0019229,0.00030451,0.0,0 STARLINK-3894,1 52499U 22049BA  23067.87754919  .00030451  00000-0  19229-2 0  9992,2 52499  53.2146 292.9082 0001871  78.2782 281.8420 15.08843634 46811,6917.869,95.437,541.029,538.44,0.0
52499.0,STARLINK-3894,PAYLOAD,2023-03-09 00:14:26,15.0884888,0.0001501,53.2149,292.3114,94.9722,265.1442,0.0013261,0.00020885,0.0,0 STARLINK-3894,1 52499U 22049BA  23068.01002729  .00020885  00000-0  13261-2 0  9994,2 52499  53.2149 292.3114 0001501  94.9722 265.1442 15.08848880 46999,6917.853,95.437,540.757,538.68,0.0
52499.0,STARLINK-3894,PAYLOAD,2023-03-09 19:19:03,15.08857319,0.0001542,53.2146,288.7431,88.7642,271.3526,0.00096097,0.00015046,0.0,0 STARLINK-3894,1 52499U 22049BA  23068.80490516  .00015046  00000-0  96097-3 0  9998,2 52499  53.2146 288.7431 0001542  88.7642 271.3526 15.08857319 47118,6917.827,95.436,540.759,538.626,0.0
52499.0,STARLINK-3894,PAYLOAD,2023-03-09 20:54:27,15.08856615,0.0001497,53.2137,288.4473,77.5235,282.5924,0.0013312,0.00020971,0.0,0 STARLINK-3894,1 52499U 22049BA  23068.87114612  .00020971  00000-0  13312-2 0  9996,2 52499  53.2137 288.4473 0001497  77.5235 282.5924 15.08856615 46960,6917.83,95.437,540.73,538.659,0.0
52499.0,STARLINK-3894,PAYLOAD,2023-03-10 08:02:08,15.08848479,0.000143,53.2145,286.3641,82.9111,277.2044,0.00031119,4.669e-05,0.0,0 STARLINK-3894,1 52499U 22049BA  23069.33482157  .00004669  00000-0  31119-3 0  9992,2 52499  53.2145 286.3641 0001430  82.9111 277.2044 15.08848479 47192,6917.854,95.437,540.709,538.73,0.0
52499.0,STARLINK-3894,PAYLOAD,2023-03-10 19:09:50,15.0883064,8.77e-05,53.2153,284.283,85.7753,274.334,-9.6333e-05,-1.82e-05,0.0,0 STARLINK-3894,1 52499U 22049BA  23069.79850626 -.00001820  00000-0 -96333-4 0  9990,2 52499  53.2153 284.2830 0000877  85.7753 274.3340 15.08830640 47261,6917.909,95.438,540.381,539.167,0.0
52499.0,STARLINK-3894,PAYLOAD,2023-03-10 20:45:14,15.08833828,0.0001155,53.2136,283.9854,87.9345,272.178,0.0003125,4.688e-05,0.0,0 STARLINK-3894,1 52499U 22049BA  23069.86474742  .00004688  00000-0  31250-3 0  9998,2 52499  53.2136 283.9854 0001155  87.9345 272.1780 15.08833828 47114,6917.899,95.438,540.563,538.965,0.0
52499.0,STARLINK-3894,PAYLOAD,2023-03-10 23:56:00,15.08840737,0.0001323,53.2149,283.3897,92.1031,268.0113,0.00056083,8.649e-05,0.0,0 STARLINK-3894,1 52499U 22049BA  23069.99722725  .00008649  00000-0  56083-3 0  9991,2 52499  53.2149 283.3897 0001323  92.1031 268.0113 15.08840737 47296,6917.878,95.438,540.658,538.828,0.0
52499.0,STARLINK-3894,PAYLOAD,2023-03-11 22:11:24,15.088467,0.0001353,53.2156,279.224,97.5244,262.5902,0.00094751,0.00014827,0.0,0 STARLINK-3894,1 52499U 22049BA  23070.92459026  .00014827  00000-0  94751-3 0  9996,2 52499  53.2156 279.2240 0001353  97.5244 262.5902 15.08846700 47435,6917.86,95.437,540.661,538.789,0.0
52499.0,STARLINK-3894,PAYLOAD,2023-03-12 22:02:11,15.08853246,7.04e-05,53.2139,274.7619,64.4376,295.6689,0.00054033,8.325e-05,0.0,0 STARLINK-3894,1 52499U 22049BA  23071.91818566  .00008325  00000-0  54033-3 0  9999,2 52499  53.2139 274.7619 0000704  64.4376 295.6689 15.08853246 47582,6917.84,95.437,540.192,539.218,0.0
52499.0,STARLINK-3894,PAYLOAD,2023-03-13 23:28:21,15.08837794,0.0001554,53.2159,270.011,95.9044,264.2125,0.00016184,2.288e-05,0.0,0 STARLINK-3894,1 52499U 22049BA  23072.97803169  .00002288  00000-0  16184-3 0  9996,2 52499  53.2159 270.0110 0001554  95.9044 264.2125 15.08837794 47749,6917.887,95.438,540.827,538.677,0.0
52499.0,STARLINK-3894,PAYLOAD,2023-03-14 23:19:08,15.08851097,0.0001012,53.2153,265.5421,131.7988,228.3091,0.00032116,4.829e-05,0.0,0 STARLINK-3894,1 52499U 22049BA  23073.97162264  .00004829  00000-0  32116-3 0  9997,2 52499  53.2153 265.5421 0001012 131.7988 228.3091 15.08851097 47893,6917.846,95.437,540.412,539.011,0.0
52499.0,STARLINK-3894,PAYLOAD,2023-03-15 21:34:31,15.08853238,0.0001257,53.2135,261.3794,178.7404,181.3591,0.00024535,3.62e-05,0.0,0 STARLINK-3894,1 52499U 22049BA  23074.89897366  .00003620  00000-0  24535-3 0  9991,2 52499  53.2135 261.3794 0001257 178.7404 181.3591 15.08853238 47875,6917.84,95.437,540.574,538.835,0.0
52499.0,STARLINK-3894,PAYLOAD,2023-03-16 05:31:27,15.08824881,5.76e-05,53.2198,259.8906,206.7512,153.345,-0.00043157,-7.146e-05,0.0,0 STARLINK-3894,1 52499U 22049BA  23075.23018179 -.00007146  00000-0 -43157-3 0  9997,2 52499  53.2198 259.8906 0000576 206.7512 153.3450 15.08824881 48085,6917.927,95.439,540.19,539.393,0.0
52499.0,STARLINK-3894,PAYLOAD,2023-03-16 11:53:01,15.08817608,0.0001192,53.2128,258.7043,81.486,278.6267,-0.00051562,-8.479e-05,0.0,0 STARLINK-3894,1 52499U 22049BA  23075.49515335 -.00008479  00000-0 -51562-3 0  9990,2 52499  53.2128 258.7043 0001192  81.4860 278.6267 15.08817608 47969,6917.949,95.439,540.638,538.989,0.0
52499.0,STARLINK-3894,PAYLOAD,2023-03-16 19:49:56,15.08828053,0.0001587,53.2143,257.2216,75.9903,284.1265,-0.00023711,-4.058e-05,0.0,0 STARLINK-3894,1 52499U 22049BA  23075.82635015 -.00004058  00000-0 -23711-3 0  9999,2 52499  53.2143 257.2216 0001587  75.9903 284.1265 15.08828053 48019,6917.917,95.438,540.88,538.684,0.0
52499.0,STARLINK-3894,PAYLOAD,2023-03-16 21:25:19,15.08831497,0.0001373,53.2138,256.9232,80.1558,279.9589,-6.7963e-05,-1.369e-05,0.0,0 STARLINK-3894,1 52499U 22049BA  23075.89258957 -.00001369  00000-0 -67963-4 0  9992,2 52499  53.2138 256.9232 0001373  80.1558 279.9589 15.08831497 48189,6917.906,95.438,540.721,538.822,0.0
